#aV2023  1 10  0  0  0.00000000     288 DD+AD WGS84 FIT  NGA
## 2244 172800.00000000   300.00000000 59954 0.0000000000000
+   31     1  2  3  4  5  6  7  8  9 10 11 12 13 14 15 16 17
+         18 19 20 21 22 23 24 25 26 27 29 30 31 32  0  0  0
+          0  0  0  0  0  0  0  0  0  0  0  0  0  0  0  0  0
+          0  0  0  0  0  0  0  0  0  0  0  0  0  0  0  0  0
+          0  0  0  0  0  0  0  0  0  0  0  0  0  0  0  0  0
++         2  2  2  2  2  2  2  2  2  2  2  2  2  2  2  2  2
++         2  2  2  2  2  2  2  2  2  2  2  2  2  2  0  0  0
++         0  0  0  0  0  0  0  0  0  0  0  0  0  0  0  0  0
++         0  0  0  0  0  0  0  0  0  0  0  0  0  0  0  0  0
++         0  0  0  0  0  0  0  0  0  0  0  0  0  0  0  0  0
%c cc cc ccc ccc cccc cccc cccc cccc ccccc ccccc ccccc ccccc
%c cc cc ccc ccc cccc cccc cccc cccc ccccc ccccc ccccc ccccc
%f  0.0000000  0.000000000  0.00000000000  0.000000000000000
%f  0.0000000  0.000000000  0.00000000000  0.000000000000000
%i    0    0    0    0      0      0      0      0         0
%i    0    0    0    0      0      0      0      0         0
/*      NGA, ST. LOUIS,MO.                                  
/*   EPHEMERIS COMPUTED FROM 2 DAYS OF DATA                 
/*   EPOCHA v8 SMOOTHER                                     
/*   G2139 IERS2010 SATIGS SATAPC                           
*  2023  1 10 20 20  0.00000000
P  1   8807.430725 -19062.568066 -16357.918811    226.075266                    
V  1  17534.517816 -10271.339852  22162.904962     -0.047801                    
P  2  -4555.667137  19832.174284  17818.983026   -628.081395                    
V  2 -17147.550934  12679.740360 -18971.181550      0.022421                    
P  3   -802.720208 -16138.780773 -21223.383389   -372.894966                    
V  3  24388.242530  10615.388372  -8939.558432      0.020426                    
P  4    833.876352 -26271.691007  -3379.685928    -51.329678                    
V  4   3075.282830   4138.206789 -31475.688006      0.075938                    
P  5 -14668.552201   9053.846655  20067.788076   -111.484654                    
V  5 -23522.076837 -10693.074793 -12149.555127     -0.014606                    
P  6 -21302.217680   2241.010216 -15690.387258    556.334790                    
V  6  15616.362361 -12507.044334 -22800.258824      0.062428                    
P  7  -6462.234477 -14441.728107  21719.413583    260.906833                    
V  7  22139.519979 -14874.464917  -3857.764749     -0.060967                    
P  8   7455.611061 -20992.915383  14114.162142   -102.940390                    
V  8   4528.022333  17754.054247  24307.152157     -0.017980                    
P  9  -7957.806855 -24213.825262   7307.661244   -238.703628                    
V  9   1780.419730  -9665.403105 -29814.206469      0.065215                    
P 10  24128.796731  11502.645195    613.559829    -19.873122                    
V 10  -1362.708899   1614.304547  31888.676687     -0.015918                    
P 11 -23570.898824  11446.471809  -4216.773797    -75.779313                    
V 11   3102.399741  -5143.302763 -31255.192263     -0.086304                    
P 12  -1775.979603  15925.784267 -21474.450923   -326.534264                    
V 12 -23553.311952 -12341.254075  -7197.473686     -0.045528                    
P 13 -12897.616958  14540.542055  17837.637054    457.159054                    
V 13   -590.762036 -23103.681666  18411.439026      0.064434                    
P 14 -22802.725299 -13508.199137   2569.483199    -51.949393                    
V 14   4263.899751  -1250.230136  31215.076722      0.074888                    
P 15  -4932.956065  22103.752225  13201.617473      3.499817                    
V 15  -7153.365458 -16490.550273  24398.564012      0.032706                    
P 16  18332.005838  -4310.780992  18622.392138   -524.214101                    
V 16  20302.596378  12999.415385 -16259.325437      0.010542                    
P 17 -12392.793310 -14941.960776 -17648.048028    692.449257                    
V 17    828.363840 -23323.205770  18794.891128      0.026384                    
P 18   8699.877328  12165.379468  21953.982054    -93.867825                    
V 18 -23030.621326  15618.930777    332.721110     -0.151541                    
P 19 -14876.622579  -3187.320854 -22019.361852    262.369296                    
V 19    512.741693 -27337.923556   3390.174642      0.050799                    
P 20 -23210.055296   2906.352547  12402.706241    457.891355                    
V 20 -14511.178336  -6900.230229 -25809.493841     -0.024018                    
P 21  15155.699249 -19683.869683  -7576.009942    153.350377                    
V 21  10334.774267  -4254.729162  30217.138997      0.002760                    
P 22  14958.261990  -1139.204248 -21487.119487    403.174093                    
V 22    464.490538  28307.830519  -1325.312561      0.079574                    
P 23  18154.083011  15988.863277  11128.233337      2.111303                    
V 23 -13728.039985  -3657.300153  27510.469758      0.010637                    
P 24 -10863.756449  20929.236083 -12143.583072    -24.202247                    
V 24 -13640.685362   7260.584198  25866.858669     -0.167833                    
P 25   9122.622486  17911.143937 -17805.809793    410.137153                    
V 25 -20620.519768  -7586.715856 -18238.002029      0.033844                    
P 26  25056.143057   2704.769343   8802.076843    240.087648                    
V 26   9408.451480   6909.882546 -28218.625943      0.006113                    
P 27  12954.958883 -10620.502658  20279.151262    130.313203                    
V 27   3655.516415  26119.486625  11620.277448     -0.094842                    
P 29   3926.152326  25697.324183   5194.846547   -579.621616                    
V 29  -2153.793523   6692.625461 -31284.642476     -0.022239                    
P 30 -17444.838085  -5400.854167  19459.007272   -533.581334                    
V 30  19403.492622 -15068.442687  13016.826015      0.009093                    
P 31  22576.335432  -3094.833647 -14181.455962   -205.941578                    
V 31 -13477.508705  11429.818164 -23781.413118     -0.011327                    
P 32  14520.855013  11495.722276 -18954.252983   -359.713620                    
V 32   1134.715912  24348.117088  15308.761800     -0.125088                    
EOF
